[{"OBJECT_NAME":"RANGE-A","OBJECT_ID":"2018-099R","EPOCH":"2026-03-09T16:56:29.908608","MEAN_MOTION":15.1245864,"ECCENTRICITY":0.00096737,"INCLINATION":97.4107,"RA_OF_ASC_NODE":114.1927,"ARG_OF_PERICENTER":340.4473,"MEAN_ANOMALY":19.6386,"EPHEMERIS_TYPE":0,"CLASSIFICATION_TYPE":"U","NORAD_CAT_ID":43773,"ELEMENT_SET_NO":999,"REV_AT_EPOCH":39745,"BSTAR":0.00032165687,"MEAN_MOTION_DOT":5.536e-5,"MEAN_MOTION_DDOT":0},{"OBJECT_NAME":"STARLINK-3157","OBJECT_ID":"2021-104F","EPOCH":"2026-03-09T17:02:35.253600","MEAN_MOTION":15.08814953,"ECCENTRICITY":0.00011281,"INCLINATION":53.2172,"RA_OF_ASC_NODE":219.0369,"ARG_OF_PERICENTER":88.5414,"MEAN_ANOMALY":271.5707,"EPHEMERIS_TYPE":0,"CLASSIFICATION_TYPE":"U","NORAD_CAT_ID":49413,"ELEMENT_SET_NO":999,"REV_AT_EPOCH":23877,"BSTAR":0.0003291248,"MEAN_MOTION_DOT":4.951e-5,"MEAN_MOTION_DDOT":0}]
