RANGE-A                 
1 43773U 18099R   26068.70590171  .00005536  00000+0  32166-3 0  9992
2 43773  97.4107 114.1927 0009674 340.4473  19.6386 15.12458640397457
STARLINK-3157           
1 49413U 21104F   26068.71013024  .00004951  00000+0  32912-3 0  9997
2 49413  53.2172 219.0369 0001128  88.5414 271.5707 15.08814953238775
